#aV2023  6 15  0  0  0.00000000     288 DD+AD WGS84 FIT  NGA
## 2266 345600.00000000   300.00000000 60110 0.0000000000000
+   32     1  2  3  4  5  6  7  8  9 10 11 12 13 14 15 16 17
+         18 19 20 21 22 23 24 25 26 27 28 29 30 31 32  0  0
+          0  0  0  0  0  0  0  0  0  0  0  0  0  0  0  0  0
+          0  0  0  0  0  0  0  0  0  0  0  0  0  0  0  0  0
+          0  0  0  0  0  0  0  0  0  0  0  0  0  0  0  0  0
++         2  2  2  2  2  2  2  2  2  2  2  2  2  2  2  2  2
++         2  2  2  2  2  2  2  2  2  2  2  2  2  2  2  0  0
++         0  0  0  0  0  0  0  0  0  0  0  0  0  0  0  0  0
++         0  0  0  0  0  0  0  0  0  0  0  0  0  0  0  0  0
++         0  0  0  0  0  0  0  0  0  0  0  0  0  0  0  0  0
%c cc cc ccc ccc cccc cccc cccc cccc ccccc ccccc ccccc ccccc
%c cc cc ccc ccc cccc cccc cccc cccc ccccc ccccc ccccc ccccc
%f  0.0000000  0.000000000  0.00000000000  0.000000000000000
%f  0.0000000  0.000000000  0.00000000000  0.000000000000000
%i    0    0    0    0      0      0      0      0         0
%i    0    0    0    0      0      0      0      0         0
/*      NGA, ST. LOUIS,MO.                                  
/*   EPHEMERIS COMPUTED FROM 2 DAYS OF DATA                 
/*   EPOCHA v8 SMOOTHER                                     
/*   G2139 IERS2010 SATIGS SATAPC                           
*  2023  6 15 16 25  0.00000000
P  1  21369.036493  13656.018626   8132.142338    178.220140                    
V  1   6485.568361   8619.220800 -29915.483942     -0.023462                    
P  2  21804.134564  15108.428823   2911.139781   -585.514502                    
V  2    841.096951   3825.472127 -31526.894670      0.035860                    
P  3  13778.552974   5519.610400  21895.376089   -269.379043                    
V  3  -6799.495213  27231.065055  -2453.069191      0.135783                    
P  4  24244.034669   1616.829331  10873.530237     69.110058                    
V  4 -12747.453661   5638.919341  27502.346175      0.103305                    
P  5  -6657.975308 -20772.693620 -15250.411578   -131.218534                    
V  5   5546.918942 -18358.275073  22963.878289     -0.014624                    
P  6   2895.783479 -16288.443381  20813.185800    584.867903                    
V  6  19288.323141  17809.012012  11378.255668     -0.019882                    
P  7  18839.367490   -197.076281 -18445.747620    151.529955                    
V  7  16482.742258  17851.990623  15760.881598     -0.101037                    
P  8  16258.162652   8939.970119 -19221.413281   -127.538174                    
V  8 -22610.740889   8502.890677 -14841.305416     -0.018438                    
P  9  25597.849038  -6989.566482   1521.800312   -135.091786                    
V  9  -1036.608961   3407.930891  31543.172988      0.088887                    
P 10 -11049.122145  22501.444220  -8106.540853    -41.275715                    
V 10    205.275957 -10860.561087 -30080.182369     -0.015877                    
P 11 -10420.794849 -21928.657275  10829.138299   -236.692832                    
V 11  11090.948335   8392.165935  27642.121571     -0.150706                    
P 12 -12296.714969  -9683.284919  21191.744577   -388.939846                    
V 12   8896.060282 -26063.646177  -6583.463731     -0.046934                    
P 13  -8012.063045 -13721.015877 -21493.607374    534.385777                    
V 13  26458.934423  -4349.225474  -6941.590622      0.051581                    
P 14  13479.865321 -20163.454513 -10625.728832     91.543844                    
V 14   -825.360152  13872.336907 -27486.945168      0.123906                    
P 15 -17662.096409  -7431.160644 -18957.226389     49.121888                    
V 15  20431.977483 -10951.069872 -14854.968730      0.035107                    
P 16   1682.255553  23038.997900 -12996.159017   -491.174298                    
V 16  -7461.924855  14552.947397  25871.373159      0.038691                    
P 17  18412.247091 -13789.369240  13800.288118    718.443344                    
V 17  16701.314773  -2059.575622 -25020.605314      0.012325                    
P 18 -16574.885081   3227.214971 -20543.510729   -308.700952                    
V 18 -17909.195867 -18865.563803  11330.726481     -0.149975                    
P 19  11256.033101 -14872.063726  18560.923765    330.969511                    
V 19  23997.491825  -2797.862212 -16899.639861      0.051219                    
P 20  -2496.308619 -25841.471957  -6022.922251    427.855650                    
V 20   3448.301630  -7438.977400  30130.369978     -0.020694                    
P 21  21056.128957  16950.126737    -48.380077    153.077853                    
V 21  -1844.588814   1162.729230 -31208.095382     -0.003000                    
P 22  -7341.947409  15954.054644  20332.579308    498.301223                    
V 22 -24569.333984   3944.435851 -12397.682762      0.059481                    
P 23 -15046.482022  12625.296770 -17799.692709     33.472678                    
V 23   3270.185113 -22446.727462 -18832.826386      0.036459                    
P 24 -22075.787642 -14797.645493   2996.698101   -225.814230                    
V 24  -1217.896647  -5213.808865 -30565.845180     -0.130709                    
P 25 -15898.925813   4200.538685  20491.583693    449.984047                    
V 25   4971.361287 -26375.691113   9384.311309      0.025135                    
P 26  -3974.322256  26065.573404   -680.390314    238.971323                    
V 26  -4027.687608     56.953714  31355.992569     -0.008414                    
P 27   4274.167311  14576.216474 -22036.935345     15.933671                    
V 27 -26283.976196   7607.570372    335.498232     -0.076141                    
P 28  -4460.634707  15646.613869  20973.298473     83.272770                    
V 28 -20415.442026 -17190.329830   8469.416122      0.008012                    
P 29 -26189.715290   3148.945180   3471.678689   -602.877147                    
V 29   3898.039777  -3102.254218  31627.921634     -0.011937                    
P 30  11711.224324 -10515.722668 -21282.720764   -510.842814                    
V 30  19632.757357  19105.011565   1090.669585      0.024689                    
P 31   6120.564491  20893.049790  14739.178512   -218.222795                    
V 31 -15387.732874 -11780.952724  23239.779285     -0.007456                    
P 32 -15443.907937  15627.660058  14964.820209   -500.824921                    
V 32 -18585.784650   3371.051909 -23173.374748     -0.084295                    
EOF
